CCSDS_OMM_VERS = 2.0
CREATION_DATE  = 
ORIGINATOR     = 

OBJECT_NAME    = SENTINEL-6B
OBJECT_ID      = 2025-264A
CENTER_NAME    = EARTH
REF_FRAME      = TEME
TIME_SYSTEM    = UTC
MEAN_ELEMENT_THEORY = SGP/SGP4

EPOCH          = 2025-12-03T21:55:25.872096
MEAN_MOTION    = 12.85877574
ECCENTRICITY   = .0011544
INCLINATION    = 66.0390
RA_OF_ASC_NODE = 180.8509
ARG_OF_PERICENTER = 268.5805
MEAN_ANOMALY   = 91.3890

EPHEMERIS_TYPE = 0
CLASSIFICATION_TYPE = U
NORAD_CAT_ID   = 66514
ELEMENT_SET_NO = 999
REV_AT_EPOCH   = 215
BSTAR          = .31328E-3
MEAN_MOTION_DOT = .15E-6
MEAN_MOTION_DDOT = 0

CCSDS_OMM_VERS = 2.0
CREATION_DATE  = 
ORIGINATOR     = 

OBJECT_NAME    = STARLINK-35924
OBJECT_ID      = 2025-265A
CENTER_NAME    = EARTH
REF_FRAME      = TEME
TIME_SYSTEM    = UTC
MEAN_ELEMENT_THEORY = SGP/SGP4

EPOCH          = 2025-12-04T04:00:03.000096
MEAN_MOTION    = 15.75127595
ECCENTRICITY   = .0001325
INCLINATION    = 42.9998
RA_OF_ASC_NODE = 104.7901
ARG_OF_PERICENTER = 267.7683
MEAN_ANOMALY   = 297.5734

EPHEMERIS_TYPE = 0
CLASSIFICATION_TYPE = U
NORAD_CAT_ID   = 66516
ELEMENT_SET_NO = 999
REV_AT_EPOCH   = 359
BSTAR          = -.13937E-1
MEAN_MOTION_DOT = -.1873126E-1
MEAN_MOTION_DDOT = 0

CCSDS_OMM_VERS = 2.0
CREATION_DATE  = 
ORIGINATOR     = 

OBJECT_NAME    = STARLINK-35937
OBJECT_ID      = 2025-265B
CENTER_NAME    = EARTH
REF_FRAME      = TEME
TIME_SYSTEM    = UTC
MEAN_ELEMENT_THEORY = SGP/SGP4

EPOCH          = 2025-12-04T04:00:03.000096
MEAN_MOTION    = 15.75195961
ECCENTRICITY   = .0001252
INCLINATION    = 42.9999
RA_OF_ASC_NODE = 104.7858
ARG_OF_PERICENTER = 257.5172
MEAN_ANOMALY   = 309.6847

EPHEMERIS_TYPE = 0
CLASSIFICATION_TYPE = U
NORAD_CAT_ID   = 66517
ELEMENT_SET_NO = 999
REV_AT_EPOCH   = 361
BSTAR          = -.1455E-1
MEAN_MOTION_DOT = -.1949212E-1
MEAN_MOTION_DDOT = 0

CCSDS_OMM_VERS = 2.0
CREATION_DATE  = 
ORIGINATOR     = 

OBJECT_NAME    = STARLINK-35962
OBJECT_ID      = 2025-265C
CENTER_NAME    = EARTH
REF_FRAME      = TEME
TIME_SYSTEM    = UTC
MEAN_ELEMENT_THEORY = SGP/SGP4

EPOCH          = 2025-12-03T22:00:03.000096
MEAN_MOTION    = 15.75391864
ECCENTRICITY   = .00017775
INCLINATION    = 42.9994
RA_OF_ASC_NODE = 106.2993
ARG_OF_PERICENTER = 267.9910
MEAN_ANOMALY   = 321.7471

EPHEMERIS_TYPE = 0
CLASSIFICATION_TYPE = U
NORAD_CAT_ID   = 66518
ELEMENT_SET_NO = 999
REV_AT_EPOCH   = 357
BSTAR          = -.62870583E-2
MEAN_MOTION_DOT = -.884371E-2
MEAN_MOTION_DDOT = 0

CCSDS_OMM_VERS = 2.0
CREATION_DATE  = 
ORIGINATOR     = 

OBJECT_NAME    = STARLINK-35931
OBJECT_ID      = 2025-265D
CENTER_NAME    = EARTH
REF_FRAME      = TEME
TIME_SYSTEM    = UTC
MEAN_ELEMENT_THEORY = SGP/SGP4

EPOCH          = 2025-12-04T04:00:03.000096
MEAN_MOTION    = 15.75177594
ECCENTRICITY   = .0001458
INCLINATION    = 43.0000
RA_OF_ASC_NODE = 104.7758
ARG_OF_PERICENTER = 263.0210
MEAN_ANOMALY   = 308.0265

EPHEMERIS_TYPE = 0
CLASSIFICATION_TYPE = U
NORAD_CAT_ID   = 66519
ELEMENT_SET_NO = 999
REV_AT_EPOCH   = 361
BSTAR          = -.14392E-1
MEAN_MOTION_DOT = -.1929803E-1
MEAN_MOTION_DDOT = 0

CCSDS_OMM_VERS = 2.0
CREATION_DATE  = 
ORIGINATOR     = 

OBJECT_NAME    = STARLINK-35952
OBJECT_ID      = 2025-265E
CENTER_NAME    = EARTH
REF_FRAME      = TEME
TIME_SYSTEM    = UTC
MEAN_ELEMENT_THEORY = SGP/SGP4

EPOCH          = 2025-12-03T22:00:03.000096
MEAN_MOTION    = 15.75410115
ECCENTRICITY   = .0001704
INCLINATION    = 42.9994
RA_OF_ASC_NODE = 106.2895
ARG_OF_PERICENTER = 272.7719
MEAN_ANOMALY   = 320.7919

EPHEMERIS_TYPE = 0
CLASSIFICATION_TYPE = U
NORAD_CAT_ID   = 66520
ELEMENT_SET_NO = 999
REV_AT_EPOCH   = 357
BSTAR          = -.63980728E-2
MEAN_MOTION_DOT = -.89907E-2
MEAN_MOTION_DDOT = 0

CCSDS_OMM_VERS = 2.0
CREATION_DATE  = 
ORIGINATOR     = 

OBJECT_NAME    = STARLINK-35915
OBJECT_ID      = 2025-265F
CENTER_NAME    = EARTH
REF_FRAME      = TEME
TIME_SYSTEM    = UTC
MEAN_ELEMENT_THEORY = SGP/SGP4

EPOCH          = 2025-12-03T22:00:03.000096
MEAN_MOTION    = 15.75386015
ECCENTRICITY   = .00017488
INCLINATION    = 42.9995
RA_OF_ASC_NODE = 106.2843
ARG_OF_PERICENTER = 270.2689
MEAN_ANOMALY   = 325.2228

EPHEMERIS_TYPE = 0
CLASSIFICATION_TYPE = U
NORAD_CAT_ID   = 66521
ELEMENT_SET_NO = 999
REV_AT_EPOCH   = 357
BSTAR          = -.62394427E-2
MEAN_MOTION_DOT = -.878105E-2
MEAN_MOTION_DDOT = 0

CCSDS_OMM_VERS = 2.0
CREATION_DATE  = 
ORIGINATOR     = 

OBJECT_NAME    = STARLINK-35946
OBJECT_ID      = 2025-265G
CENTER_NAME    = EARTH
REF_FRAME      = TEME
TIME_SYSTEM    = UTC
MEAN_ELEMENT_THEORY = SGP/SGP4

EPOCH          = 2025-12-03T22:00:03.000096
MEAN_MOTION    = 15.75387690
ECCENTRICITY   = .00017743
INCLINATION    = 42.9994
RA_OF_ASC_NODE = 106.2796
ARG_OF_PERICENTER = 271.1314
MEAN_ANOMALY   = 326.2765

EPHEMERIS_TYPE = 0
CLASSIFICATION_TYPE = U
NORAD_CAT_ID   = 66522
ELEMENT_SET_NO = 999
REV_AT_EPOCH   = 357
BSTAR          = -.62505773E-2
MEAN_MOTION_DOT = -.879588E-2
MEAN_MOTION_DDOT = 0

CCSDS_OMM_VERS = 2.0
CREATION_DATE  = 
ORIGINATOR     = 

OBJECT_NAME    = STARLINK-35969
OBJECT_ID      = 2025-265H
CENTER_NAME    = EARTH
REF_FRAME      = TEME
TIME_SYSTEM    = UTC
MEAN_ELEMENT_THEORY = SGP/SGP4

EPOCH          = 2025-12-03T22:00:03.000096
MEAN_MOTION    = 15.75396680
ECCENTRICITY   = .00011446
INCLINATION    = 42.9996
RA_OF_ASC_NODE = 106.2749
ARG_OF_PERICENTER = 257.5477
MEAN_ANOMALY   = 341.7710

EPHEMERIS_TYPE = 0
CLASSIFICATION_TYPE = U
NORAD_CAT_ID   = 66523
ELEMENT_SET_NO = 999
REV_AT_EPOCH   = 357
BSTAR          = -.63216545E-2
MEAN_MOTION_DOT = -.88872E-2
MEAN_MOTION_DDOT = 0

CCSDS_OMM_VERS = 2.0
CREATION_DATE  = 
ORIGINATOR     = 

OBJECT_NAME    = STARLINK-35687
OBJECT_ID      = 2025-265J
CENTER_NAME    = EARTH
REF_FRAME      = TEME
TIME_SYSTEM    = UTC
MEAN_ELEMENT_THEORY = SGP/SGP4

EPOCH          = 2025-12-03T22:00:03.000096
MEAN_MOTION    = 15.75394692
ECCENTRICITY   = .00016647
INCLINATION    = 42.9996
RA_OF_ASC_NODE = 106.2697
ARG_OF_PERICENTER = 269.0729
MEAN_ANOMALY   = 332.1722

EPHEMERIS_TYPE = 0
CLASSIFICATION_TYPE = U
NORAD_CAT_ID   = 66524
ELEMENT_SET_NO = 999
REV_AT_EPOCH   = 357
BSTAR          = -.63535587E-2
MEAN_MOTION_DOT = -.892867E-2
MEAN_MOTION_DDOT = 0

CCSDS_OMM_VERS = 2.0
CREATION_DATE  = 
ORIGINATOR     = 

OBJECT_NAME    = STARLINK-35975
OBJECT_ID      = 2025-265K
CENTER_NAME    = EARTH
REF_FRAME      = TEME
TIME_SYSTEM    = UTC
MEAN_ELEMENT_THEORY = SGP/SGP4

EPOCH          = 2025-12-03T22:00:03.000096
MEAN_MOTION    = 15.75391401
ECCENTRICITY   = .00015651
INCLINATION    = 42.9995
RA_OF_ASC_NODE = 106.2653
ARG_OF_PERICENTER = 254.9776
MEAN_ANOMALY   = 348.1801

EPHEMERIS_TYPE = 0
CLASSIFICATION_TYPE = U
NORAD_CAT_ID   = 66525
ELEMENT_SET_NO = 999
REV_AT_EPOCH   = 357
BSTAR          = -.62798007E-2
MEAN_MOTION_DOT = -.88336E-2
MEAN_MOTION_DDOT = 0

CCSDS_OMM_VERS = 2.0
CREATION_DATE  = 
ORIGINATOR     = 

OBJECT_NAME    = STARLINK-35932
OBJECT_ID      = 2025-265L
CENTER_NAME    = EARTH
REF_FRAME      = TEME
TIME_SYSTEM    = UTC
MEAN_ELEMENT_THEORY = SGP/SGP4

EPOCH          = 2025-12-03T22:00:03.000096
MEAN_MOTION    = 15.75380333
ECCENTRICITY   = .00020413
INCLINATION    = 42.9996
RA_OF_ASC_NODE = 106.2605
ARG_OF_PERICENTER = 266.5533
MEAN_ANOMALY   = 338.5258

EPHEMERIS_TYPE = 0
CLASSIFICATION_TYPE = U
NORAD_CAT_ID   = 66526
ELEMENT_SET_NO = 999
REV_AT_EPOCH   = 346
BSTAR          = -.61924974E-2
MEAN_MOTION_DOT = -.872035E-2
MEAN_MOTION_DDOT = 0

CCSDS_OMM_VERS = 2.0
CREATION_DATE  = 
ORIGINATOR     = 

OBJECT_NAME    = STARLINK-35935
OBJECT_ID      = 2025-265M
CENTER_NAME    = EARTH
REF_FRAME      = TEME
TIME_SYSTEM    = UTC
MEAN_ELEMENT_THEORY = SGP/SGP4

EPOCH          = 2025-12-03T22:00:03.000096
MEAN_MOTION    = 15.75546224
ECCENTRICITY   = .00007889
INCLINATION    = 42.9996
RA_OF_ASC_NODE = 106.2563
ARG_OF_PERICENTER = 270.7934
MEAN_ANOMALY   = 336.0834

EPHEMERIS_TYPE = 0
CLASSIFICATION_TYPE = U
NORAD_CAT_ID   = 66527
ELEMENT_SET_NO = 999
REV_AT_EPOCH   = 357
BSTAR          = -.74902605E-2
MEAN_MOTION_DOT = -.1058434E-1
MEAN_MOTION_DDOT = 0

CCSDS_OMM_VERS = 2.0
CREATION_DATE  = 
ORIGINATOR     = 

OBJECT_NAME    = STARLINK-35928
OBJECT_ID      = 2025-265N
CENTER_NAME    = EARTH
REF_FRAME      = TEME
TIME_SYSTEM    = UTC
MEAN_ELEMENT_THEORY = SGP/SGP4

EPOCH          = 2025-12-03T22:00:03.000096
MEAN_MOTION    = 15.75391824
ECCENTRICITY   = .00016273
INCLINATION    = 42.9997
RA_OF_ASC_NODE = 106.2510
ARG_OF_PERICENTER = 255.2195
MEAN_ANOMALY   = 353.6879

EPHEMERIS_TYPE = 0
CLASSIFICATION_TYPE = U
NORAD_CAT_ID   = 66528
ELEMENT_SET_NO = 999
REV_AT_EPOCH   = 357
BSTAR          = -.62820329E-2
MEAN_MOTION_DOT = -.883679E-2
MEAN_MOTION_DDOT = 0

CCSDS_OMM_VERS = 2.0
CREATION_DATE  = 
ORIGINATOR     = 

OBJECT_NAME    = STARLINK-35933
OBJECT_ID      = 2025-265P
CENTER_NAME    = EARTH
REF_FRAME      = TEME
TIME_SYSTEM    = UTC
MEAN_ELEMENT_THEORY = SGP/SGP4

EPOCH          = 2025-12-03T22:00:03.000096
MEAN_MOTION    = 15.75354918
ECCENTRICITY   = .0001663
INCLINATION    = 42.9997
RA_OF_ASC_NODE = 106.2459
ARG_OF_PERICENTER = 259.2996
MEAN_ANOMALY   = 351.5280

EPHEMERIS_TYPE = 0
CLASSIFICATION_TYPE = U
NORAD_CAT_ID   = 66529
ELEMENT_SET_NO = 999
REV_AT_EPOCH   = 357
BSTAR          = -.58322292E-2
MEAN_MOTION_DOT = -.824938E-2
MEAN_MOTION_DDOT = 0

